TRANSPORTER-11 OBJECT A 
1 60468U 24149A   26068.74646182  .00010774  00000+0  36054-3 0  9993
2 60468  97.3780 149.0949 0003110 191.0010 169.1164 15.31141332 86830
STARLINK-36515          
1 67430U 26005AC  26067.57094610  .00039239  00000+0  14270-2 0  9997
2 67430  42.9999 244.4472 0001614 259.2943 100.7727 15.27599080  8511
